[Satellite]
VERSION=1.1
NAME=IRIDIUM 138 [+]
NICKNAME=IRIDIUM 138 [+]
TLE1=1 43071U 17083B   20157.72435267  .00000083  00000-0  22481-4 0  9997
TLE2=2 43071  86.3962 162.3604 0002474  86.3267 273.8212 14.34216752128452
STATUS=0
